     3.02           N: GNSS NAV DATA    G: GPS              RINEX VERSION / TYPE
LgsRinex v1.7.8.0   SMO                 20171211 131243 UTC PGM / RUN BY / DATE
GPSA   9.3132D-09 -1.4901D-08 -5.9605D-08  1.1921D-07       IONOSPHERIC CORR
GPSB   9.6256D+04 -1.4746D+05 -1.3107D+05  9.1750D+05       IONOSPHERIC CORR
GPUT -2.7939677238D-09-5.329070518D-15 319488 1979          TIME SYSTEM CORR
    18    18  1929     7                                    LEAP SECONDS
                                                            END OF HEADER
G32 2017 12 11 11 59 44-5.291947163641D-04-1.932676241267D-12 0.000000000000D+00
     2.700000000000D+01 3.325000000000D+01 4.562690225640D-09-1.949158855204D-01
     1.646578311920D-06 1.492118928581D-03 1.001358032227D-05 5.153616184235D+03
     1.295840000000D+05 2.048909664154D-08 2.341220803895D+00 3.725290298462D-09
     9.574194248649D-01 1.860937500000D+02-2.669305030835D+00-8.028905540414D-09
    -3.500145659419D-11 1.000000000000D+00 1.979000000000D+03 0.000000000000D+00
     2.000000000000D+00 0.000000000000D+00 4.656612873077D-10 2.700000000000D+01
     1.223100000000D+05                   
G14 2017 12 11 14 00 00-9.036669507623D-05-6.821210263297D-13 0.000000000000D+00
     8.900000000000D+01 3.756250000000D+01 4.588048163612D-09-2.180142765068D-01
     2.026557922363D-06 9.238237398677D-03 9.939074516296D-06 5.153721645355D+03
     1.368000000000D+05-4.470348358154D-08 2.425397666085D+00 5.215406417847D-08
     9.614663873114D-01 1.907187500000D+02-1.951940440326D+00-8.182126975953D-09
     1.892935981573D-11 1.000000000000D+00 1.979000000000D+03 0.000000000000D+00
     2.800000000000D+00 0.000000000000D+00-9.778887033463D-09 8.900000000000D+01
     1.295400000000D+05                   
G03 2017 12 11 14 00 00-2.873921766877D-05 6.025402399246D-12 0.000000000000D+00
     6.400000000000D+01-4.556250000000D+01 4.619478133350D-09 3.136441730736D+00
    -2.434477210045D-06 1.158979837783D-03 8.268281817436D-06 5.153602048874D+03
     1.368000000000D+05-8.381903171539D-08 1.301908882439D+00-2.980232238770D-08
     9.600357163354D-01 2.181875000000D+02 5.886051842828D-01-8.067836176906D-09
    -2.042942204294D-10 1.000000000000D+00 1.979000000000D+03 0.000000000000D+00
     2.000000000000D+00 0.000000000000D+00 2.328306436539D-09 6.400000000000D+01
     1.295400000000D+05                   
G29 2017 12 11 14 00 00 5.266615189612D-04-5.115907697473D-12 0.000000000000D+00
     2.500000000000D+01 8.156250000000D+00 3.888733335344D-09 1.409097852707D+00
     3.483146429062D-07 4.037601174787D-04 9.011477231979D-06 5.153769041061D+03
     1.368000000000D+05 2.421438694000D-08-7.337556030432D-01 2.607703208923D-08
     9.829182405929D-01 2.141562500000D+02 8.873169522670D-01-7.818182545805D-09
     3.071556620160D-10 1.000000000000D+00 1.979000000000D+03 0.000000000000D+00
     2.000000000000D+00 0.000000000000D+00-1.024454832077D-08 2.500000000000D+01
     1.295400000000D+05                   
G31 2017 12 11 14 00 00 1.562144607306D-04-2.614797267597D-12 0.000000000000D+00
     2.800000000000D+01 5.268750000000D+01 4.599477243517D-09-2.962439188112D+00
     2.719461917877D-06 8.801005780697D-03 5.418434739113D-06 5.153571077347D+03
     1.368000000000D+05-8.940696716309D-08-2.856550630594D+00 8.381903171539D-08
     9.652625280645D-01 2.802812500000D+02-2.021749830453D-01-8.115694782873D-09
    -2.000083258735D-11 1.000000000000D+00 1.979000000000D+03 0.000000000000D+00
     2.000000000000D+00 0.000000000000D+00-1.350417733192D-08 2.800000000000D+01
     1.295400000000D+05                   
G23 2017 12 11 14 00 00-2.189595252275D-04-1.136868377216D-13 0.000000000000D+00
     9.100000000000D+01 3.896875000000D+01 4.790556840106D-09-1.263583446762D+00
     1.983717083931D-06 1.185064774472D-02 9.598210453987D-06 5.153636482239D+03
     1.368000000000D+05 2.738088369370D-07 2.336961700772D+00 7.450580596924D-09
     9.438251576720D-01 1.828125000000D+02-2.410726531728D+00-8.082122526787D-09
    -6.428839231798D-12 1.000000000000D+00 1.979000000000D+03 0.000000000000D+00
     2.000000000000D+00 0.000000000000D+00-2.048909664154D-08 9.100000000000D+01
     1.295400000000D+05                   
G27 2017 12 11 14 00 00 3.551514819264D-04 2.955857780762D-12 0.000000000000D+00
     6.700000000000D+01-6.843750000000D+00 4.084098836898D-09 1.658135017236D-01
    -3.091990947723D-07 5.142029724084D-03 8.823350071907D-06 5.153679357529D+03
     1.368000000000D+05 7.636845111847D-08-7.972305447208D-01 4.284083843231D-08
     9.764949549801D-01 2.185937500000D+02 3.589829073647D-01-7.931402201677D-09
     1.853648623484D-10 1.000000000000D+00 1.979000000000D+03 0.000000000000D+00
     2.000000000000D+00 0.000000000000D+00 1.862645149231D-09 6.700000000000D+01
     1.295400000000D+05                   
G16 2017 12 11 14 00 00 3.555789589882D-05-4.547473508865D-13 0.000000000000D+00
     2.600000000000D+01-3.025000000000D+01 3.846945872965D-09 9.936160323932D-01
    -1.400709152222D-06 9.544988628477D-03 7.068738341331D-06 5.153550910950D+03
     1.368000000000D+05-1.192092895508D-07-1.760523911905D+00 1.061707735062D-07
     9.882312752507D-01 2.583750000000D+02 4.501573236594D-01-7.892828612910D-09
    -3.196561626506D-10 1.000000000000D+00 1.979000000000D+03 0.000000000000D+00
     2.000000000000D+00 0.000000000000D+00-1.071020960808D-08 2.600000000000D+01
     1.295400000000D+05                   
G26 2017 12 11 14 00 00-3.292830660939D-04 1.432454155292D-11 0.000000000000D+00
     6.700000000000D+01-3.140625000000D+01 4.581976575935D-09 2.034288499847D+00
    -1.566484570503D-06 2.361862454563D-03 6.498768925667D-06 5.153579181671D+03
     1.368000000000D+05-1.862645149231D-08-1.856111185475D+00-3.539025783539D-08
     9.572191367507D-01 2.528125000000D+02-7.099841775765D-02-8.217485358841D-09
    -2.728685055686D-10 1.000000000000D+00 1.979000000000D+03 0.000000000000D+00
     2.000000000000D+00 0.000000000000D+00 7.450580596924D-09 6.700000000000D+01
     1.295400000000D+05                   
G32 2017 12 11 13 59 44-5.292091518641D-04-1.932676241267D-12 0.000000000000D+00
     2.800000000000D+01 3.418750000000D+01 4.598763148067D-09 8.549810221228D-01
     1.803040504456D-06 1.492143841460D-03 1.030415296555D-05 5.153616527557D+03
     1.367840000000D+05 5.774199962616D-08 2.341162734825D+00-1.303851604462D-08
     9.574191615396D-01 1.794062500000D+02-2.668984828788D+00-8.056050049277D-09
    -7.857469883077D-12 1.000000000000D+00 1.979000000000D+03 0.000000000000D+00
     2.000000000000D+00 0.000000000000D+00 4.656612873077D-10 2.800000000000D+01
     1.295100000000D+05                   
G22 2017 12 11 14 00 00-2.187532372773D-04-1.284661266254D-11 0.000000000000D+00
     6.900000000000D+01-4.928125000000D+01 5.570231831342D-09-5.588530790682D-01
    -2.555549144745D-06 7.144677452743D-03 7.785856723785D-06 5.153648706436D+03
     1.368000000000D+05-1.285225152969D-07 1.248536958347D+00-5.587935447693D-09
     9.239910869776D-01 2.097187500000D+02-1.644250536355D+00-8.705005605236D-09
    -1.500062435378D-10 1.000000000000D+00 1.979000000000D+03 0.000000000000D+00
     2.000000000000D+00 0.000000000000D+00-1.769512891769D-08 6.900000000000D+01
     1.295400000000D+05                   
G08 2017 12 11 14 00 00-8.372589945793D-05-1.364242052659D-12 0.000000000000D+00
     2.800000000000D+01-6.000000000000D+00 4.185174429239D-09 6.043621022903D-01
    -3.129243850708D-07 3.007570281625D-03 8.545815944672D-06 5.153735965729D+03
     1.368000000000D+05 1.117587089539D-08-8.043716403475D-01-8.195638656616D-08
     9.683340328278D-01 2.181562500000D+02-6.270197950570D-01-7.999618745202D-09
     1.939366445214D-10 1.000000000000D+00 1.979000000000D+03 0.000000000000D+00
     2.000000000000D+00 0.000000000000D+00 5.587935447693D-09 2.800000000000D+01
     1.295400000000D+05                   
G21 2017 12 11 14 00 00-4.536202177405D-04 3.865352482535D-12 0.000000000000D+00
     6.900000000000D+01-9.562500000000D+00 5.103427014319D-09 2.529440386716D+00
    -6.482005119324D-07 2.418511419091D-02 4.976987838745D-06 5.153552320480D+03
     1.368000000000D+05 2.533197402954D-07 2.096938918951D-01-1.713633537292D-07
     9.421736138614D-01 2.703125000000D+02-1.617786342449D+00-8.069621415530D-09
     1.567922458534D-10 1.000000000000D+00 1.979000000000D+03 0.000000000000D+00
     2.000000000000D+00 0.000000000000D+00-9.778887033463D-09 6.900000000000D+01
     1.295400000000D+05                   
G14 2017 12 11 13 59 44-9.036855772138D-05-7.958078640513D-13 0.000000000000D+00
     2.400000000000D+01 3.756250000000D+01 4.588048163612D-09-2.203475489199D-01
     2.026557922363D-06 9.238234255463D-03 9.939074516296D-06 5.153721649170D+03
     1.367840000000D+05-4.470348358154D-08 2.425397816766D+00 5.215406417847D-08
     9.614664385135D-01 1.907187500000D+02-1.951940787037D+00-8.182126975953D-09
     1.857220280344D-11 1.000000000000D+00 1.979000000000D+03 0.000000000000D+00
     2.000000000000D+00 0.000000000000D+00-9.778887033463D-09 2.400000000000D+01
     1.295100000000D+05                   
G09 2017 12 11 13 59 44 4.819440655410D-04 4.206412995700D-12 0.000000000000D+00
     3.300000000000D+01 4.453125000000D+01 4.624835625577D-09 3.720989407859D-01
     2.235174179077D-06 1.096424181014D-03 1.002289354801D-05 5.153724021912D+03
     1.367840000000D+05-4.470348358154D-08 2.337003714317D+00-1.117587089539D-08
     9.529836378108D-01 1.814687500000D+02 1.723797711940D+00-8.034620080366D-09
    -1.714357128479D-11 1.000000000000D+00 1.979000000000D+03 0.000000000000D+00
     2.000000000000D+00 0.000000000000D+00 9.313225746155D-10 3.300000000000D+01
     1.295100000000D+05                   
